IRIDIUM 126             
1 42809U 17039G   25135.67739436  .00000174  00000+0  55041-4 0  9994
2 42809  86.3986 159.8011 0002144  96.9855 263.1585 14.34217466412985
IRIDIUM 124             
1 42810U 17039H   25135.37069902  .00000244  00000+0  66586-4 0  9991
2 42810  86.4465  96.6905 0002662  88.9697 271.1809 14.43281179417738
IRIDIUM 128             
1 42811U 17039J   25135.52859757 -.00000002  00000+0 -76505-5 0  9991
2 42811  86.4020 191.3252 0002638  95.8891 264.2606 14.34217696412983
IRIDIUM 121             
1 42812U 17039K   25135.55688363  .00000205  00000+0  66106-4 0  9996
2 42812  86.3986 159.8765 0002464  89.5298 270.6180 14.34217712412831
IRIDIUM 133             
1 42955U 17061A   25136.11845785  .00000025  00000+0  17979-5 0  9990
2 42955  86.4022 191.1869 0002243  96.1904 263.9548 14.34217767397866
IRIDIUM 100             
1 42956U 17061B   25136.11211536  .00000103  00000+0  29832-4 0  9999
2 42956  86.4016 191.1177 0002434  98.6994 261.4478 14.34217999397884
IRIDIUM 122             
1 42957U 17061C   25135.52225382  .00000002  00000+0 -62412-5 0  9999
2 42957  86.4021 191.3627 0002227  98.0621 262.0828 14.34217747397780
